[{"OBJECT_NAME":"STARLINK-35233","OBJECT_ID":"2025-212C","EPOCH":"2026-03-09T23:29:13.733088","MEAN_MOTION":15.30200663,"ECCENTRICITY":0.00010187,"INCLINATION":53.1597,"RA_OF_ASC_NODE":344.6283,"ARG_OF_PERICENTER":107.3573,"MEAN_ANOMALY":252.754,"EPHEMERIS_TYPE":0,"CLASSIFICATION_TYPE":"U","NORAD_CAT_ID":65678,"ELEMENT_SET_NO":999,"REV_AT_EPOCH":2729,"BSTAR":0.00052780847,"MEAN_MOTION_DOT":0.00015306,"MEAN_MOTION_DDOT":0},{"OBJECT_NAME":"SL-19 R\/B","OBJECT_ID":"2011-005B","EPOCH":"2026-03-09T21:50:35.538720","MEAN_MOTION":15.57556472,"ECCENTRICITY":0.01260184,"INCLINATION":99.3438,"RA_OF_ASC_NODE":178.5978,"ARG_OF_PERICENTER":174.8144,"MEAN_ANOMALY":185.4445,"EPHEMERIS_TYPE":0,"CLASSIFICATION_TYPE":"U","NORAD_CAT_ID":37363,"ELEMENT_SET_NO":999,"REV_AT_EPOCH":82354,"BSTAR":0.00054776137,"MEAN_MOTION_DOT":0.00058791,"MEAN_MOTION_DDOT":0}]
